{"type": "FeatureCollection", "features": [ {"type": "Feature", "properties": {"norad_id": 43262, "name": "GAOFEN-1 04", "group": "resource", "lat": -14.063277454717033, "lon": -133.62428650732213, "alt_km": 645.6439452240056, "timestamp": "2025-12-16T13:52:37.187370+00:00", "meta": {"OBJECT_NAME": "GAOFEN-1 04", "OBJECT_ID": "2018-031D", "EPOCH": "2025-12-15T23:59:19.608000", "MEAN_MOTION": 14.76458623, "ECCENTRICITY": 9.361e-05, "INCLINATION": 98.0808, "RA_OF_ASC_NODE": 47.8364, "ARG_OF_PERICENTER": 59.167, "MEAN_ANOMALY": 300.9631, "EPHEMERIS_TYPE": 0, "CLASSIFICATION_TYPE": "U", "NORAD_CAT_ID": 43262, "ELEMENT_SET_NO": 999, "REV_AT_EPOCH": 41565, "BSTAR": 0.00016373224, "MEAN_MOTION_DOT": 1.087e-05, "MEAN_MOTION_DDOT": 0}, "tle": {"line1": "1 43262U 18031D   25349.99953250  .00001087  00000+0  16373-3 0  9993", "line2": "2 43262  98.0808  47.8364 0000936  59.1670 300.9631 14.76458623415659"}}, "geometry": {"type": "Point", "coordinates": [-133.62428650732213, -14.063277454717033]}}, {"type": "Feature", "properties": {"norad_id": 43437, "name": "SENTINEL-3B", "group": "resource", "lat": 34.20428707761447, "lon": 49.785864674073764, "alt_km": 799.8681787727, "timestamp": "2025-12-16T13:52:37.187379+00:00", "meta": {"OBJECT_NAME": "SENTINEL-3B", "OBJECT_ID": "2018-039A", "EPOCH": "2025-12-15T22:34:01.390368", "MEAN_MOTION": 14.26735179, "ECCENTRICITY": 0.0001629, "INCLINATION": 98.6266, "RA_OF_ASC_NODE": 55.0798, "ARG_OF_PERICENTER": 98.6146, "MEAN_ANOMALY": 261.5219, "EPHEMERIS_TYPE": 0, "CLASSIFICATION_TYPE": "U", "NORAD_CAT_ID": 43437, "ELEMENT_SET_NO": 999, "REV_AT_EPOCH": 39799, "BSTAR": 7.1042753e-05, "MEAN_MOTION_DOT": 1.28e-06, "MEAN_MOTION_DDOT": 0}, "tle": {"line1": "1 43437U 18039A   25349.94029387  .00000128  00000+0  71043-4 0  9996", "line2": "2 43437  98.6266  55.0798 0001629  98.6146 261.5219 14.26735179397994"}}, "geometry": {"type": "Point", "coordinates": [49.785864674073764, 34.20428707761447]}}, {"type": "Feature", "properties": {"norad_id": 43461, "name": "GAOFEN-5 01", "group": "resource", "lat": 50.62525092590132, "lon": 144.02699393166668, "alt_km": 687.6838700747112, "timestamp": "2025-12-16T13:52:37.187389+00:00", "meta": {"OBJECT_NAME": "GAOFEN-5 01", "OBJECT_ID": "2018-043A", "EPOCH": "2025-12-15T20:50:49.331328", "MEAN_MOTION": 14.60413185, "ECCENTRICITY": 7.485e-05, "INCLINATION": 98.4329, "RA_OF_ASC_NODE": 312.8905, "ARG_OF_PERICENTER": 326.6717, "MEAN_ANOMALY": 33.4436, "EPHEMERIS_TYPE": 0, "CLASSIFICATION_TYPE": "U", "NORAD_CAT_ID": 43461, "ELEMENT_SET_NO": 999, "REV_AT_EPOCH": 40493, "BSTAR": 0.00010021275, "MEAN_MOTION_DOT": 4.36e-06, "MEAN_MOTION_DDOT": 0}, "tle": {"line1": "1 43461U 18043A   25349.86862652  .00000436  00000+0  10021-3 0  9999", "line2": "2 43461  98.4329 312.8905 0000748 326.6717  33.4436 14.60413185404930"}}, "geometry": {"type": "Point", "coordinates": [144.02699393166668, 50.62525092590132]}}, {"type": "Feature", "properties": {"norad_id": 43484, "name": "GAOFEN-6", "group": "resource", "lat": -13.357143394551265, "lon": 56.58205379910494, "alt_km": 640.9217286944358, "timestamp": "2025-12-16T13:52:37.187399+00:00", "meta": {"OBJECT_NAME": "GAOFEN-6", "OBJECT_ID": "2018-048A", "EPOCH": "2025-12-15T23:18:01.791648", "MEAN_MOTION": 14.76574749, "ECCENTRICITY": 0.00130763, "INCLINATION": 97.8031, "RA_OF_ASC_NODE": 54.1292, "ARG_OF_PERICENTER": 54.1321, "MEAN_ANOMALY": 306.1102, "EPHEMERIS_TYPE": 0, "CLASSIFICATION_TYPE": "U", "NORAD_CAT_ID": 43484, "ELEMENT_SET_NO": 999, "REV_AT_EPOCH": 40635, "BSTAR": 0.00016714868, "MEAN_MOTION_DOT": 1.118e-05, "MEAN_MOTION_DDOT": 0}, "tle": {"line1": "1 43484U 18048A   25349.97085407  .00001118  00000+0  16715-3 0  9990", "line2": "2 43484  97.8031  54.1292 0013076  54.1321 306.1102 14.76574749406354"}}, "geometry": {"type": "Point", "coordinates": [56.58205379910494, -13.357143394551265]}}, {"type": "Feature", "properties": {"norad_id": 43585, "name": "GAOFEN-11 01", "group": "resource", "lat": 74.62643130440274, "lon": 26.288114593338697, "alt_km": 413.8303290250806, "timestamp": "2025-12-16T13:52:37.187409+00:00", "meta": {"OBJECT_NAME": "GAOFEN-11 01", "OBJECT_ID": "2018-063A", "EPOCH": "2025-12-15T23:35:51.962784", "MEAN_MOTION": 15.49312794, "ECCENTRICITY": 0.00041386, "INCLINATION": 97.1564, "RA_OF_ASC_NODE": 52.8903, "ARG_OF_PERICENTER": 296.5942, "MEAN_ANOMALY": 63.4885, "EPHEMERIS_TYPE": 0, "CLASSIFICATION_TYPE": "U", "NORAD_CAT_ID": 43585, "ELEMENT_SET_NO": 999, "REV_AT_EPOCH": 41192, "BSTAR": 0.00020171866, "MEAN_MOTION_DOT": 0.00010948, "MEAN_MOTION_DDOT": 0}, "tle": {"line1": "1 43585U 18063A   25349.98324031  .00010948  00000+0  20172-3 0  9992", "line2": "2 43585  97.1564  52.8903 0004138 296.5942  63.4885 15.49312794411925"}}, "geometry": {"type": "Point", "coordinates": [26.288114593338697, 74.62643130440274]}}, {"type": "Feature", "properties": {"norad_id": 43613, "name": "ICESAT-2", "group": "resource", "lat": -61.887735516036976, "lon": 58.0127349789099, "alt_km": 489.05562552673473, "timestamp": "2025-12-16T13:52:37.187418+00:00", "meta": {"OBJECT_NAME": "ICESAT-2", "OBJECT_ID": "2018-070A", "EPOCH": "2025-12-15T21:06:23.675616", "MEAN_MOTION": 15.28239046, "ECCENTRICITY": 0.00025753, "INCLINATION": 92.0049, "RA_OF_ASC_NODE": 241.584, "ARG_OF_PERICENTER": 131.0432, "MEAN_ANOMALY": 229.104, "EPHEMERIS_TYPE": 0, "CLASSIFICATION_TYPE": "U", "NORAD_CAT_ID": 43613, "ELEMENT_SET_NO": 999, "REV_AT_EPOCH": 40446, "BSTAR": 0.00029543951, "MEAN_MOTION_DOT": 8.127e-05, "MEAN_MOTION_DDOT": 0}, "tle": {"line1": "1 43613U 18070A   25349.87944069  .00008127  00000+0  29544-3 0  9997", "line2": "2 43613  92.0049 241.5840 0002575 131.0432 229.1040 15.28239046404466"}}, "geometry": {"type": "Point", "coordinates": [58.0127349789099, -61.887735516036976]}}, {"type": "Feature", "properties": {"norad_id": 43719, "name": "HYSIS", "group": "resource", "lat": 50.11993844606161, "lon": 43.83479106959908, "alt_km": 628.1229553082885, "timestamp": "2025-12-16T13:52:37.187428+00:00", "meta": {"OBJECT_NAME": "HYSIS", "OBJECT_ID": "2018-096A", "EPOCH": "2025-12-15T23:01:52.982400", "MEAN_MOTION": 14.78656651, "ECCENTRICITY": 0.00012395, "INCLINATION": 98.0099, "RA_OF_ASC_NODE": 52.9215, "ARG_OF_PERICENTER": 54.8343, "MEAN_ANOMALY": 305.2984, "EPHEMERIS_TYPE": 0, "CLASSIFICATION_TYPE": "U", "NORAD_CAT_ID": 43719, "ELEMENT_SET_NO": 999, "REV_AT_EPOCH": 38034, "BSTAR": 0.00017872356, "MEAN_MOTION_DOT": 1.257e-05, "MEAN_MOTION_DDOT": 0}, "tle": {"line1": "1 43719U 18096A   25349.95964100  .00001257  00000+0  17872-3 0  9997", "line2": "2 43719  98.0099  52.9215 0001239  54.8343 305.2984 14.78656651380345"}}, "geometry": {"type": "Point", "coordinates": [43.83479106959908, 50.11993844606161]}}, {"type": "Feature", "properties": {"norad_id": 43783, "name": "KAZSTSAT", "group": "resource", "lat": -32.320680729912745, "lon": -159.15348263210322, "alt_km": 575.8592758914037, "timestamp": "2025-12-16T13:52:37.187438+00:00", "meta": {"OBJECT_NAME": "KAZSTSAT", "OBJECT_ID": "2018-099AB", "EPOCH": "2025-12-15T12:54:22.403520", "MEAN_MOTION": 14.99359975, "ECCENTRICITY": 0.00058686, "INCLINATION": 97.4555, "RA_OF_ASC_NODE": 24.6031, "ARG_OF_PERICENTER": 317.8732, "MEAN_ANOMALY": 42.204, "EPHEMERIS_TYPE": 0, "CLASSIFICATION_TYPE": "U", "NORAD_CAT_ID": 43783, "ELEMENT_SET_NO": 999, "REV_AT_EPOCH": 38378, "BSTAR": 5.7883892e-05, "MEAN_MOTION_DOT": 6.52e-06, "MEAN_MOTION_DDOT": 0}, "tle": {"line1": "1 43783U 18099AB  25349.53775930  .00000652  00000+0  57884-4 0  9992", "line2": "2 43783  97.4555  24.6031 0005868 317.8732  42.2040 14.99359975383788"}}, "geometry": {"type": "Point", "coordinates": [-159.15348263210322, -32.320680729912745]}}, {"type": "Feature", "properties": {"norad_id": 43831, "name": "SAUDISAT 5A", "group": "resource", "lat": -82.50069562199921, "lon": 152.56645540552347, "alt_km": 503.330641890223, "timestamp": "2025-12-16T13:52:37.187448+00:00", "meta": {"OBJECT_NAME": "SAUDISAT 5A", "OBJECT_ID": "2018-102A", "EPOCH": "2025-12-16T00:06:41.624352", "MEAN_MOTION": 15.2569956, "ECCENTRICITY": 0.0011643, "INCLINATION": 97.3356, "RA_OF_ASC_NODE": 50.1329, "ARG_OF_PERICENTER": 66.2019, "MEAN_ANOMALY": 294.0439, "EPHEMERIS_TYPE": 0, "CLASSIFICATION_TYPE": "U", "NORAD_CAT_ID": 43831, "ELEMENT_SET_NO": 999, "REV_AT_EPOCH": 38772, "BSTAR": 0.00018866209, "MEAN_MOTION_DOT": 4.744e-05, "MEAN_MOTION_DDOT": 0}, "tle": {"line1": "1 43831U 18102A   25350.00464843  .00004744  00000+0  18866-3 0  9995", "line2": "2 43831  97.3356  50.1329 0011643  66.2019 294.0439 15.25699560387729"}}, "geometry": {"type": "Point", "coordinates": [152.56645540552347, -82.50069562199921]}}, {"type": "Feature", "properties": {"norad_id": 43833, "name": "SAUDISAT 5B", "group": "resource", "lat": -34.318766453948086, "lon": 58.49255595627654, "alt_km": 495.5223955460451, "timestamp": "2025-12-16T13:52:37.187458+00:00", "meta": {"OBJECT_NAME": "SAUDISAT 5B", "OBJECT_ID": "2018-102C", "EPOCH": "2025-12-15T23:51:54.725760", "MEAN_MOTION": 15.260503, "ECCENTRICITY": 0.00123671, "INCLINATION": 97.345, "RA_OF_ASC_NODE": 52.8672, "ARG_OF_PERICENTER": 68.4849, "MEAN_ANOMALY": 291.7706, "EPHEMERIS_TYPE": 0, "CLASSIFICATION_TYPE": "U", "NORAD_CAT_ID": 43833, "ELEMENT_SET_NO": 999, "REV_AT_EPOCH": 38783, "BSTAR": 0.00018625562, "MEAN_MOTION_DOT": 4.733e-05, "MEAN_MOTION_DDOT": 0}, "tle": {"line1": "1 43833U 18102C   25349.99438340  .00004733  00000+0  18626-3 0  9998", "line2": "2 43833  97.3450  52.8672 0012367  68.4849 291.7706 15.26050300387832"}}, "geometry": {"type": "Point", "coordinates": [58.49255595627654, -34.318766453948086]}}]}